NORAD_CAT_ID,OBJECT_NAME,OBJECT_TYPE,EPOCH,MEAN_MOTION,ECCENTRICITY,INCLINATION,RA_OF_ASC_NODE,ARG_OF_PERICENTER,MEAN_ANOMALY,BSTAR,MEAN_MOTION_DOT,MEAN_MOTION_DDOT,TLE_LINE0,TLE_LINE1,TLE_LINE2,SEMIMAJOR_AXIS,PERIOD,APOGEE,PERIGEE,DECAYED
52610.0,STARLINK-3998,PAYLOAD,2023-02-26 11:36:42,15.08842898,0.0001122,53.2149,214.5596,84.2465,275.8655,0.00030687,4.6e-05,0.0,0 STARLINK-3998,1 52610U 22052N   23057.48383063  .00004600  00000-0  30687-3 0  9994,2 52610  53.2149 214.5596 0001122  84.2465 275.8655 15.08842898 44006,6917.872,95.437,540.513,538.96,0.0
52610.0,STARLINK-3998,PAYLOAD,2023-02-26 19:33:37,15.08857285,0.0001223,53.2154,213.0726,84.5744,275.5388,0.00025823,3.826e-05,0.0,0 STARLINK-3998,1 52610U 22052N   23057.81502156  .00003826  00000-0  25823-3 0  9992,2 52610  53.2154 213.0726 0001223  84.5744 275.5388 15.08857285 44057,6917.828,95.436,540.539,538.847,0.0
52610.0,STARLINK-3998,PAYLOAD,2023-02-27 03:30:34,15.08841771,0.0001369,53.2159,211.5857,74.1332,285.9811,5.7517e-05,6.28e-06,0.0,0 STARLINK-3998,1 52610U 22052N   23058.14622963  .00000628  00000-0  57517-4 0  9991,2 52610  53.2159 211.5857 0001369  74.1332 285.9811 15.08841771 44104,6917.875,95.437,540.687,538.793,0.0
52610.0,STARLINK-3998,PAYLOAD,2023-02-27 09:52:06,15.08841368,0.0001553,53.2156,210.3981,74.0695,286.0469,7.6313e-05,9.27e-06,0.0,0 STARLINK-3998,1 52610U 22052N   23058.41119147  .00000927  00000-0  76313-4 0  9993,2 52610  53.2156 210.3981 0001553  74.0695 286.0469 15.08841368 43777,6917.876,95.437,540.816,538.667,0.0
52610.0,STARLINK-3998,PAYLOAD,2023-02-27 16:13:38,15.08853873,0.0001606,53.2156,209.2078,86.9128,273.2048,0.00031131,4.672e-05,0.0,0 STARLINK-3998,1 52610U 22052N   23058.67614524  .00004672  00000-0  31131-3 0  9999,2 52610  53.2156 209.2078 0001606  86.9128 273.2048 15.08853873 44184,6917.838,95.437,540.814,538.592,0.0
52610.0,STARLINK-3998,PAYLOAD,2023-02-27 20:59:47,15.08862181,0.0001367,53.215,208.3155,76.7188,283.3957,0.00046552,7.133e-05,0.0,0 STARLINK-3998,1 52610U 22052N   23058.87486102  .00007133  00000-0  46552-3 0  9998,2 52610  53.2150 208.3155 0001367  76.7188 283.3957 15.08862181 43846,6917.813,95.436,540.623,538.732,0.0
52610.0,STARLINK-3998,PAYLOAD,2023-02-28 03:21:21,15.08838626,0.0001233,53.215,207.1259,79.3372,280.7759,3.6586e-05,2.94e-06,0.0,0 STARLINK-3998,1 52610U 22052N   23059.13982856  .00000294  00000-0  36586-4 0  9993,2 52610  53.2150 207.1259 0001233  79.3372 280.7759 15.08838626 44258,6917.885,95.438,540.603,538.897,0.0
52610.0,STARLINK-3998,PAYLOAD,2023-02-28 12:53:40,15.08838441,0.0001115,53.2144,205.3415,83.6556,276.4563,0.00024094,3.549e-05,0.0,0 STARLINK-3998,1 52610U 22052N   23059.53726982  .00003549  00000-0  24094-3 0  9999,2 52610  53.2144 205.3415 0001115  83.6556 276.4563 15.08838441 43941,6917.885,95.438,540.521,538.979,0.0
52610.0,STARLINK-3998,PAYLOAD,2023-02-28 20:50:35,15.08847315,0.0001247,53.215,203.8555,77.3906,282.7225,0.00054263,8.36e-05,0.0,0 STARLINK-3998,1 52610U 22052N   23059.86846897  .00008360  00000-0  54263-3 0  9990,2 52610  53.2150 203.8555 0001247  77.3906 282.7225 15.08847315 43991,6917.858,95.437,540.586,538.86,0.0
52610.0,STARLINK-3998,PAYLOAD,2023-03-01 11:09:04,15.08833643,6.94e-05,53.2149,201.1789,60.4326,299.6735,0.00084776,0.00013228,0.0,0 STARLINK-3998,1 52610U 22052N   23060.46463681  .00013228  00000-0  84776-3 0  9995,2 52610  53.2149 201.1789 0000694  60.4326 299.6735 15.08833643 44457,6917.9,95.438,540.245,539.285,0.0
52610.0,STARLINK-3998,PAYLOAD,2023-03-01 20:41:23,15.08850081,0.0001127,53.215,199.3952,83.4912,276.6209,0.0015419,0.00024343,0.0,0 STARLINK-3998,1 52610U 22052N   23060.86207732  .00024343  00000-0  15419-2 0  9999,2 52610  53.2150 199.3952 0001127  83.4912 276.6209 15.08850081 44149,6917.85,95.437,540.494,538.935,0.0
52610.0,STARLINK-3998,PAYLOAD,2023-03-02 18:56:47,15.08860289,0.0001387,53.2157,195.2331,114.878,245.2356,0.0013308,0.00020967,0.0,0 STARLINK-3998,1 52610U 22052N   23061.78943502  .00020967  00000-0  13308-2 0  9996,2 52610  53.2157 195.2331 0001387 114.8780 245.2356 15.08860289 44654,6917.818,95.436,540.643,538.724,0.0
52610.0,STARLINK-3998,PAYLOAD,2023-03-03 07:39:52,15.08852775,0.0002923,53.2155,192.8536,100.2196,259.9126,0.00094914,0.00014855,0.0,0 STARLINK-3998,1 52610U 22052N   23062.31936199  .00014855  00000-0  94914-3 0  9992,2 52610  53.2155 192.8536 0002923 100.2196 259.9126 15.08852775 44736,6917.841,95.437,541.728,537.684,0.0
52610.0,STARLINK-3998,PAYLOAD,2023-03-03 20:22:58,15.08856818,0.0001862,53.2155,190.475,64.1196,295.9988,0.0018465,0.00029235,0.0,0 STARLINK-3998,1 52610U 22052N   23062.84928497  .00029235  00000-0  18465-2 0  9996,2 52610  53.2155 190.4750 0001862  64.1196 295.9988 15.08856818 44443,6917.829,95.436,540.982,538.406,0.0
52610.0,STARLINK-3998,PAYLOAD,2023-03-04 01:09:07,15.08842969,3.35e-05,53.2159,189.5824,120.8552,239.2474,0.00019569,2.829e-05,0.0,0 STARLINK-3998,1 52610U 22052N   23063.04800033  .00002829  00000-0  19569-3 0  9991,2 52610  53.2159 189.5824 0000335 120.8552 239.2474 15.08842969 44845,6917.871,95.437,539.968,539.505,0.0
52610.0,STARLINK-3998,PAYLOAD,2023-03-04 18:38:21,15.0889868,0.0001431,53.2156,186.3101,76.3992,283.7159,0.0032074,0.00051211,0.0,0 STARLINK-3998,1 52610U 22052N   23063.77663392  .00051211  00000-0  32074-2 0  9990,2 52610  53.2156 186.3101 0001431  76.3992 283.7159 15.08898680 44953,6917.701,95.434,540.556,538.576,0.0
52610.0,STARLINK-3998,PAYLOAD,2023-03-05 00:59:53,15.08854827,0.0001362,53.2157,185.1214,100.9292,259.1853,7.0617e-05,8.37e-06,0.0,0 STARLINK-3998,1 52610U 22052N   23064.04159461  .00000837  00000-0  70617-4 0  9993,2 52610  53.2157 185.1214 0001362 100.9292 259.1853 15.08854827 44993,6917.835,95.437,540.642,538.758,0.0
52610.0,STARLINK-3998,PAYLOAD,2023-03-06 00:50:40,15.08895847,0.0001021,53.2152,180.6609,64.1292,295.9805,0.0034566,0.0005524,0.0,0 STARLINK-3998,1 52610U 22052N   23065.03519206  .00055240  00000-0  34566-2 0  9999,2 52610  53.2152 180.6609 0001021  64.1292 295.9805 15.08895847 45149,6917.71,95.434,540.281,538.868,0.0
52610.0,STARLINK-3998,PAYLOAD,2023-03-06 11:58:22,15.088593,0.0001118,53.2151,178.5807,76.0655,284.0461,0.0034628,0.00055284,0.0,0 STARLINK-3998,1 52610U 22052N   23065.49887225  .00055284  00000-0  34628-2 0  9995,2 52610  53.2151 178.5807 0001118  76.0655 284.0461 15.08859300 45215,6917.821,95.436,540.46,538.913,0.0
52610.0,STARLINK-3998,PAYLOAD,2023-03-06 16:44:31,15.08882142,0.0001225,53.2149,177.6885,76.4029,283.71,0.0032516,0.00051902,0.0,0 STARLINK-3998,1 52610U 22052N   23065.69758777  .00051902  00000-0  32516-2 0  9993,2 52610  53.2149 177.6885 0001225  76.4029 283.7100 15.08882142 44873,6917.752,95.435,540.464,538.769,0.0
52610.0,STARLINK-3998,PAYLOAD,2023-03-07 00:41:27,15.08837334,0.0001208,53.2146,176.2021,91.9189,268.1942,0.0035533,0.00056714,0.0,0 STARLINK-3998,1 52610U 22052N   23066.02878977  .00056714  00000-0  35533-2 0  9994,2 52610  53.2146 176.2021 0001208  91.9189 268.1942 15.08837334 45298,6917.889,95.438,540.589,538.918,0.0
52610.0,STARLINK-3998,PAYLOAD,2023-03-07 07:03:00,15.08815009,0.0001165,53.2154,175.0131,97.9748,262.1376,0.0033407,0.00053244,0.0,0 STARLINK-3998,1 52610U 22052N   23066.29375498  .00053244  00000-0  33407-2 0  9996,2 52610  53.2154 175.0131 0001165  97.9748 262.1376 15.08815009 45330,6917.957,95.439,540.628,539.016,0.0
52610.0,STARLINK-3998,PAYLOAD,2023-03-07 16:35:19,15.08870333,0.0001185,53.2151,173.2282,96.4082,263.7045,0.0038271,0.000612,0.0,0 STARLINK-3998,1 52610U 22052N   23066.69119310  .00061200  00000-0  38271-2 0  9994,2 52610  53.2151 173.2282 0001185  96.4082 263.7045 15.08870333 45398,6917.788,95.436,540.472,538.833,0.0
52610.0,STARLINK-3998,PAYLOAD,2023-03-08 00:32:15,15.08827081,0.0002316,53.2153,171.7417,78.0958,282.0293,0.0028459,0.00045281,0.0,0 STARLINK-3998,1 52610U 22052N   23067.02240280  .00045281  00000-0  28459-2 0  9991,2 52610  53.2153 171.7417 0002316  78.0958 282.0293 15.08827081 45445,6917.92,95.438,541.387,538.183,0.0
52610.0,STARLINK-3998,PAYLOAD,2023-03-08 16:26:06,15.0887701,0.0001351,53.2163,168.7659,86.8347,273.28,0.0039874,0.00063811,0.0,0 STARLINK-3998,1 52610U 22052N   23067.68479651  .00063811  00000-0  39874-2 0  9991,2 52610  53.2163 168.7659 0001351  86.8347 273.2800 15.08877010 45170,6917.767,95.435,540.567,538.698,0.0
52610.0,STARLINK-3998,PAYLOAD,2023-03-09 19:27:38,15.08882035,0.000133,53.2152,163.7067,131.9683,228.1423,0.0018298,0.00028987,0.0,0 STARLINK-3998,1 52610U 22052N   23068.81086715  .00028987  00000-0  18298-2 0  9994,2 52610  53.2152 163.7067 0001330 131.9683 228.1423 15.08882035 45711,6917.752,95.435,540.537,538.697,0.0
52610.0,STARLINK-3998,PAYLOAD,2023-03-10 11:21:30,15.08862013,0.0001279,53.2174,160.7423,72.8223,287.2909,0.0010389,0.00016295,0.0,0 STARLINK-3998,1 52610U 22052N   23069.47327169  .00016295  00000-0  10389-2 0  9990,2 52610  53.2174 160.7423 0001279  72.8223 287.2909 15.08862013 45813,6917.813,95.436,540.563,538.793,0.0
52610.0,STARLINK-3998,PAYLOAD,2023-03-10 12:56:53,15.08874001,0.000125,53.2162,160.4444,125.4047,234.7062,0.0024887,0.00039579,0.0,0 STARLINK-3998,1 52610U 22052N   23069.53950766  .00039579  00000-0  24887-2 0  9990,2 52610  53.2162 160.4444 0001250 125.4047 234.7062 15.08874001 45826,6917.776,95.435,540.506,538.777,0.0
52610.0,STARLINK-3998,PAYLOAD,2023-03-10 22:29:11,15.08876182,4.43e-05,53.2169,158.6569,114.7514,245.3525,0.0016467,0.00026042,0.0,0 STARLINK-3998,1 52610U 22052N   23069.93694214  .00026042  00000-0  16467-2 0  9993,2 52610  53.2169 158.6569 0000443 114.7514 245.3525 15.08876182 45883,6917.77,95.435,539.941,539.328,0.0
52610.0,STARLINK-3998,PAYLOAD,2023-03-11 06:26:08,15.08847066,0.0003096,53.2172,157.1732,115.8931,244.238,0.0011591,0.00018211,0.0,0 STARLINK-3998,1 52610U 22052N   23070.26815088  .00018211  00000-0  11591-2 0  9997,2 52610  53.2172 157.1732 0003096 115.8931 244.2380 15.08847066 45937,6917.859,95.437,541.866,537.582,0.0
